GLOBALSTAR M063         
1 26081U 00008A   24334.85913598 -.00000002  00000+0  11831-2 0  9997
2 26081  51.9962 276.5288 0004583 297.6565  93.2020 11.86163888133923
GLOBALSTAR M062         
1 26082U 00008B   24334.71848376  .00000043  00000+0  10135-2 0  9994
2 26082  51.9861 322.3546 0007332  45.8754 125.3284 12.43452587471809
GLOBALSTAR M060         
1 26083U 00008C   24334.92812359 -.00000063  00000+0  28059-3 0  9998
2 26083  52.0023 253.5558 0004248  73.6690  21.4065 12.17646776128090
GLOBALSTAR M064         
1 26084U 00008D   24334.40661300 -.00000069  00000+0  20630-3 0  9993
2 26084  52.0060  18.9026 0001474  46.4102 313.6853 11.88525912143452
GLOBALSTAR M065         
1 31571U 07020A   24334.89454588 -.00000075  00000+0  16005-3 0  9990
2 31571  51.9878 112.8412 0009716 217.5456 283.4745 12.61979630808248
GLOBALSTAR M069         
1 31573U 07020C   24334.72830104 -.00000069  00000+0  20234-3 0  9998
2 31573  51.9957  71.9855 0001363 112.9762  51.6797 12.53305568809306
GLOBALSTAR M072         
1 31574U 07020D   24334.79098603 -.00000062  00000+0  27325-3 0  9997
2 31574  52.0056 168.5576 0001322  82.8901 290.7198 12.34773461807586
GLOBALSTAR M071         
1 31576U 07020F   24334.79858998 -.00000071  00000+0  18190-3 0  9990
2 31576  52.0074  74.0525 0001339 104.9040  37.9849 12.62264239470557
